{
  "type": "FeatureCollection",
  "features": [
    {
      "type": "Feature",
      "properties": {
        "norad_id": 66877,
        "name": "ZQ-3 R/B",
        "group": "last-30-days",
        "lat": 41.58699976576507,
        "lon": 155.09526614282353,
        "alt_km": 774.2618833936986,
        "timestamp": "2025-12-24T20:42:19.746856+00:00",
        "meta_object_name": "ZQ-3 R/B",
        "meta_object_id": "2025-282A",
        "meta_epoch": "2025-12-24T07:07:57.607392",
        "meta_mean_motion": 14.83128541,
        "meta_eccentricity": 0.06813087,
        "meta_inclination": 56.949,
        "meta_ra_of_asc_node": 12.637,
        "meta_arg_of_pericenter": 240.3532,
        "meta_mean_anomaly": 112.7991,
        "meta_ephemeris_type": 0,
        "meta_classification_type": "U",
        "meta_norad_cat_id": 66877,
        "meta_element_set_no": 999,
        "meta_rev_at_epoch": 309,
        "meta_bstar": 0.00016559042,
        "meta_mean_motion_dot": 0.00968191,
        "meta_mean_motion_ddot": 7.900271e-06,
        "tle_line1": "1 66877U 25282A   25358.29719453  .00968191  79003-5  16559-3 0  9993",
        "tle_line2": "2 66877  56.9490  12.6370 0681308 240.3532 112.7991 14.83128541  3092"
      },
      "geometry": {
        "type": "Point",
        "coordinates": [
          155.09526614282353,
          41.58699976576507
        ]
      }
    },
    {
      "type": "Feature",
      "properties": {
        "norad_id": 66878,
        "name": "STARLINK-35866",
        "group": "last-30-days",
        "lat": 38.674384872043525,
        "lon": 50.230093470600046,
        "alt_km": 371.70253167201554,
        "timestamp": "2025-12-24T20:42:19.746867+00:00",
        "meta_object_name": "STARLINK-35866",
        "meta_object_id": "2025-283A",
        "meta_epoch": "2025-12-24T06:00:02.000160",
        "meta_mean_motion": 15.66205931,
        "meta_eccentricity": 0.00014315,
        "meta_inclination": 53.1597,
        "meta_ra_of_asc_node": 16.3522,
        "meta_arg_of_pericenter": 88.4708,
        "meta_mean_anomaly": 109.3225,
        "meta_ephemeris_type": 0,
        "meta_classification_type": "U",
        "meta_norad_cat_id": 66878,
        "meta_element_set_no": 999,
        "meta_rev_at_epoch": 427,
        "meta_bstar": -0.021945629,
        "meta_mean_motion_dot": -0.02025353,
        "meta_mean_motion_ddot": 0,
        "tle_line1": "1 66878U 25283A   25358.25002315 -.02025353  00000+0 -21946-1 0  9990",
        "tle_line2": "2 66878  53.1597  16.3522 0001431  88.4708 109.3225 15.66205931  4273"
      },
      "geometry": {
        "type": "Point",
        "coordinates": [
          50.230093470600046,
          38.674384872043525
        ]
      }
    },
    {
      "type": "Feature",
      "properties": {
        "norad_id": 66879,
        "name": "STARLINK-35749",
        "group": "last-30-days",
        "lat": 41.06712494707318,
        "lon": 54.13398120956807,
        "alt_km": 371.2407831176988,
        "timestamp": "2025-12-24T20:42:19.746877+00:00",
        "meta_object_name": "STARLINK-35749",
        "meta_object_id": "2025-283B",
        "meta_epoch": "2025-12-24T06:00:02.000160",
        "meta_mean_motion": 15.66206779,
        "meta_eccentricity": 0.00015194,
        "meta_inclination": 53.1596,
        "meta_ra_of_asc_node": 16.3438,
        "meta_arg_of_pericenter": 89.2125,
        "meta_mean_anomaly": 112.4137,
        "meta_ephemeris_type": 0,
        "meta_classification_type": "U",
        "meta_norad_cat_id": 66879,
        "meta_element_set_no": 999,
        "meta_rev_at_epoch": 427,
        "meta_bstar": -0.021957187,
        "meta_mean_motion_dot": -0.02026421,
        "meta_mean_motion_ddot": 0,
        "tle_line1": "1 66879U 25283B   25358.25002315 -.02026421  00000+0 -21957-1 0  9990",
        "tle_line2": "2 66879  53.1596  16.3438 0001519  89.2125 112.4137 15.66206779  4276"
      },
      "geometry": {
        "type": "Point",
        "coordinates": [
          54.13398120956807,
          41.06712494707318
        ]
      }
    },
    {
      "type": "Feature",
      "properties": {
        "norad_id": 66880,
        "name": "STARLINK-35844",
        "group": "last-30-days",
        "lat": 39.88753476233977,
        "lon": 52.14895565403515,
        "alt_km": 371.51624805774736,
        "timestamp": "2025-12-24T20:42:19.746887+00:00",
        "meta_object_name": "STARLINK-35844",
        "meta_object_id": "2025-283C",
        "meta_epoch": "2025-12-24T06:00:02.000160",
        "meta_mean_motion": 15.66205679,
        "meta_eccentricity": 0.00014054,
        "meta_inclination": 53.1596,
        "meta_ra_of_asc_node": 16.3484,
        "meta_arg_of_pericenter": 89.817,
        "meta_mean_anomaly": 109.8936,
        "meta_ephemeris_type": 0,
        "meta_classification_type": "U",
        "meta_norad_cat_id": 66880,
        "meta_element_set_no": 999,
        "meta_rev_at_epoch": 427,
        "meta_bstar": -0.021944736,
        "meta_mean_motion_dot": -0.02025241,
        "meta_mean_motion_ddot": 0,
        "tle_line1": "1 66880U 25283C   25358.25002315 -.02025241  00000+0 -21945-1 0  9998",
        "tle_line2": "2 66880  53.1596  16.3484 0001405  89.8170 109.8936 15.66205679  4274"
      },
      "geometry": {
        "type": "Point",
        "coordinates": [
          52.14895565403515,
          39.88753476233977
        ]
      }
    },
    {
      "type": "Feature",
      "properties": {
        "norad_id": 66881,
        "name": "STARLINK-35860",
        "group": "last-30-days",
        "lat": 42.21243809513194,
        "lon": 56.192994768110786,
        "alt_km": 371.0590590318716,
        "timestamp": "2025-12-24T20:42:19.746896+00:00",
        "meta_object_name": "STARLINK-35860",
        "meta_object_id": "2025-283D",
        "meta_epoch": "2025-12-24T06:00:02.000160",
        "meta_mean_motion": 15.66205053,
        "meta_eccentricity": 0.00014893,
        "meta_inclination": 53.1597,
        "meta_ra_of_asc_node": 16.3396,
        "meta_arg_of_pericenter": 89.2873,
        "meta_mean_anomaly": 114.2575,
        "meta_ephemeris_type": 0,
        "meta_classification_type": "U",
        "meta_norad_cat_id": 66881,
        "meta_element_set_no": 999,
        "meta_rev_at_epoch": 427,
        "meta_bstar": -0.021940101,
        "meta_mean_motion_dot": -0.02024889,
        "meta_mean_motion_ddot": 0,
        "tle_line1": "1 66881U 25283D   25358.25002315 -.02024889  00000+0 -21940-1 0  9991",
        "tle_line2": "2 66881  53.1597  16.3396 0001489  89.2873 114.2575 15.66205053  4279"
      },
      "geometry": {
        "type": "Point",
        "coordinates": [
          56.192994768110786,
          42.21243809513194
        ]
      }
    },
    {
      "type": "Feature",
      "properties": {
        "norad_id": 66882,
        "name": "STARLINK-35912",
        "group": "last-30-days",
        "lat": 43.32068818011733,
        "lon": 58.33142044116086,
        "alt_km": 370.78287018369883,
        "timestamp": "2025-12-24T20:42:19.746908+00:00",
        "meta_object_name": "STARLINK-35912",
        "meta_object_id": "2025-283E",
        "meta_epoch": "2025-12-24T06:00:02.000160",
        "meta_mean_motion": 15.66197736,
        "meta_eccentricity": 0.00015227,
        "meta_inclination": 53.1593,
        "meta_ra_of_asc_node": 16.3364,
        "meta_arg_of_pericenter": 84.0057,
        "meta_mean_anomaly": 121.4567,
        "meta_ephemeris_type": 0,
        "meta_classification_type": "U",
        "meta_norad_cat_id": 66882,
        "meta_element_set_no": 999,
        "meta_rev_at_epoch": 427,
        "meta_bstar": -0.021811997,
        "meta_mean_motion_dot": -0.02014013,
        "meta_mean_motion_ddot": 0,
        "tle_line1": "1 66882U 25283E   25358.25002315 -.02014013  00000+0 -21812-1 0  9998",
        "tle_line2": "2 66882  53.1593  16.3364 0001522  84.0057 121.4567 15.66197736  4275"
      },
      "geometry": {
        "type": "Point",
        "coordinates": [
          58.33142044116086,
          43.32068818011733
        ]
      }
    },
    {
      "type": "Feature",
      "properties": {
        "norad_id": 66883,
        "name": "STARLINK-35947",
        "group": "last-30-days",
        "lat": 44.38388729123289,
        "lon": 60.538422221559955,
        "alt_km": 370.74044698430407,
        "timestamp": "2025-12-24T20:42:19.746920+00:00",
        "meta_object_name": "STARLINK-35947",
        "meta_object_id": "2025-283F",
        "meta_epoch": "2025-12-24T06:00:02.000160",
        "meta_mean_motion": 15.66199868,
        "meta_eccentricity": 0.00013979,
        "meta_inclination": 53.1595,
        "meta_ra_of_asc_node": 16.3328,
        "meta_arg_of_pericenter": 87.316,
        "meta_mean_anomaly": 120.0701,
        "meta_ephemeris_type": 0,
        "meta_classification_type": "U",
        "meta_norad_cat_id": 66883,
        "meta_element_set_no": 999,
        "meta_rev_at_epoch": 432,
        "meta_bstar": -0.021929059,
        "meta_mean_motion_dot": -0.02023547,
        "meta_mean_motion_ddot": 0,
        "tle_line1": "1 66883U 25283F   25358.25002315 -.02023547  00000+0 -21929-1 0  9990",
        "tle_line2": "2 66883  53.1595  16.3328 0001397  87.3160 120.0701 15.66199868  4328"
      },
      "geometry": {
        "type": "Point",
        "coordinates": [
          60.538422221559955,
          44.38388729123289
        ]
      }
    }
  ]
}